OBJECT_NAME,OBJECT_ID,EPOCH,MEAN_MOTION,ECCENTRICITY,INCLINATION,RA_OF_ASC_NODE,ARG_OF_PERICENTER,MEAN_ANOMALY,EPHEMERIS_TYPE,CLASSIFICATION_TYPE,NORAD_CAT_ID,ELEMENT_SET_NO,REV_AT_EPOCH,BSTAR,MEAN_MOTION_DOT,MEAN_MOTION_DDOT
STARLINK-34991,2025-194N,2026-07-19T20:02:55.680288,15.05659227,.0002541,97.2853,52.4002,84.8852,275.2666,0,U,65446,999,4953,.19051E-3,.2694E-4,0
STARLINK-34920,2025-194P,2026-07-19T19:46:59.087136,15.05658398,.0002428,97.2837,52.4133,83.8315,276.3189,0,U,65447,999,4953,.16593E-3,.2339E-4,0
STARLINK-35030,2025-194Q,2026-07-19T07:45:14.220000,15.05658133,.00022757,97.2857,51.8686,81.4480,278.7005,0,U,65448,999,4945,.10008706E-3,.1388E-4,0
STARLINK-35009,2025-194R,2026-07-19T13:12:12.465792,15.05670131,.00021591,97.2842,52.1757,88.7424,271.4051,0,U,65449,999,4949,-.48163874E-3,-.7002E-4,0
STARLINK-34970,2025-194S,2026-07-19T11:28:32.801088,15.05666524,.00018987,97.2854,51.9639,65.8923,294.2503,0,U,65450,999,4947,.2296112E-3,.326E-4,0
STARLINK-35039,2025-194T,2026-07-19T04:21:52.677216,15.05660766,.00028214,97.2864,51.7554,82.3219,277.8329,0,U,65451,999,4943,.18826376E-3,.2662E-4,0
STARLINK-35084,2025-194U,2026-07-19T20:38:48.577344,15.05659014,.0002526,97.2850,52.3644,82.4922,277.6593,0,U,65452,999,4953,.16368E-3,.2307E-4,0
STARLINK-34988,2025-194V,2026-07-19T11:49:12.336096,15.04840430,.0001493,97.3951,53.6932,85.1455,274.9942,0,U,65453,999,4952,.1741499E-3,.2402E-4,0
STARLINK-35059,2025-194W,2026-07-19T19:53:05.238240,15.04840106,.0002231,97.3948,53.5378,72.9695,287.1776,0,U,65454,999,4954,.18937E-3,.2617E-4,0
STARLINK-34728,2025-194X,2026-07-19T12:56:15.227232,15.05662083,.00021893,97.2854,52.0356,89.9927,270.1552,0,U,65455,999,4948,.17231271E-3,.2432E-4,0
STARLINK-35005,2025-194Y,2026-07-19T13:16:13.473408,15.05656853,.00023347,97.2841,52.1727,80.1240,280.0251,0,U,65456,999,4949,.20390239E-3,.2887E-4,0
STARLINK-35076,2025-194Z,2026-07-19T20:46:47.076960,15.05660077,.0002199,97.2849,52.3569,86.8898,273.2581,0,U,65457,999,4953,.14229E-3,.1998E-4,0
STARLINK-34784,2025-195A,2026-07-19T20:33:30.968352,15.31714536,.000106,53.1601,3.2481,106.3708,253.7410,0,U,65458,999,5024,.32961E-3,.9881E-4,0
STARLINK-34867,2025-195B,2026-07-19T17:08:50.459424,15.34410975,.0001061,53.1600,3.0723,88.4540,271.6584,0,U,65459,999,5023,.57651E-3,.19159E-3,0
STARLINK-34850,2025-195C,2026-07-19T20:10:22.148832,15.34397393,.0001171,53.1608,2.4365,84.3336,275.7800,0,U,65460,999,5025,.21379E-3,.6853E-4,0
STARLINK-35159,2025-195D,2026-07-19T20:40:40.996704,15.34356553,.0000827,53.1607,2.5727,56.9418,303.1664,0,U,65461,999,5025,.61928E-3,.20576E-3,0
STARLINK-35180,2025-195E,2026-07-19T17:11:52.282176,15.34396427,.0001488,53.1609,3.0862,109.7559,250.3604,0,U,65462,999,5023,.41858E-3,.1379E-3,0
STARLINK-35111,2025-195F,2026-07-19T17:52:28.827840,15.31709024,.0001249,53.1611,3.9638,78.1958,281.9184,0,U,65463,999,5022,.23165E-3,.6832E-4,0
STARLINK-35107,2025-195G,2026-07-19T16:58:42.709728,15.31711640,.0001525,53.1599,3.7352,88.4474,271.6702,0,U,65464,999,5022,.28014E-3,.8341E-4,0
STARLINK-35169,2025-195H,2026-07-19T17:51:15.553728,15.34402296,.0000987,53.1600,3.2571,83.5613,276.5502,0,U,65465,999,5023,.35383E-3,.11598E-3,0
STARLINK-35027,2025-195J,2026-07-19T20:37:38.652096,15.34404234,.0001144,53.1610,2.5585,74.3564,285.7565,0,U,65466,999,5025,.55219E-3,.18328E-3,0
STARLINK-34816,2025-195K,2026-07-19T20:00:01.999008,15.31686036,.0001226,53.1615,4.6744,76.2963,204.1474,0,U,65467,999,570,.10098E-2,.31086E-3,0
STARLINK-35033,2025-195L,2026-07-19T20:13:20.893152,15.31715093,.000086,53.1596,3.1521,72.2801,287.8294,0,U,65468,999,5024,.34279E-3,.10292E-3,0
STARLINK-34924,2025-195M,2026-07-19T17:05:48.696288,15.34402498,.0001202,53.1595,3.0583,82.2239,277.8900,0,U,65469,999,5023,.37626E-3,.12358E-3,0
STARLINK-34829,2025-195N,2026-07-19T17:32:18.929760,15.31712602,.0001149,53.1617,3.8767,103.8030,256.3099,0,U,65470,999,5022,.26091E-3,.7743E-4,0
STARLINK-34888,2025-195P,2026-07-19T17:48:13.732704,15.34403126,.0001303,53.1616,3.2403,97.1742,262.9409,0,U,65471,999,5023,.44279E-3,.14615E-3,0
STARLINK-34799,2025-195Q,2026-07-19T18:27:29.313792,15.34403977,.0001186,53.1598,2.7029,84.4505,275.6633,0,U,65472,999,5022,.34263E-3,.11219E-3,0
STARLINK-34762,2025-195R,2026-07-19T19:55:13.179360,15.34408436,.0001069,53.1607,2.3707,89.0075,271.1050,0,U,65473,999,5023,.40827E-3,.13446E-3,0
STARLINK-34998,2025-195S,2026-07-19T19:29:18.917664,15.30202317,.0001164,53.1605,4.3776,114.4976,245.6146,0,U,65474,999,5020,.28619E-3,.8127E-4,0
STARLINK-34832,2025-195T,2026-07-19T19:49:09.748128,15.34404268,.0001,53.1598,2.3431,105.2131,254.8982,0,U,65475,999,5023,.29497E-3,.9604E-4,0
