STARLINK-34991          
1 65446U 25194N   26200.83536667  .00002694  00000+0  19051-3 0  9999
2 65446  97.2853  52.4002 0002541  84.8852 275.2666 15.05659227 49538
STARLINK-34920          
1 65447U 25194P   26200.82429499  .00002339  00000+0  16593-3 0  9997
2 65447  97.2837  52.4133 0002428  83.8315 276.3189 15.05658398 49533
STARLINK-35030          
1 65448U 25194Q   26200.32308125  .00001388  00000+0  10009-3 0  9994
2 65448  97.2857  51.8686 0002275  81.4480 278.7005 15.05658133 49450
STARLINK-35009          
1 65449U 25194R   26200.55014428 -.00007002  00000+0 -48164-3 0  9994
2 65449  97.2842  52.1757 0002159  88.7424 271.4051 15.05670131 49494
STARLINK-34970          
1 65450U 25194S   26200.47815742  .00003260  00000+0  22961-3 0  9992
2 65450  97.2854  51.9639 0001898  65.8923 294.2503 15.05666524 49478
STARLINK-35039          
1 65451U 25194T   26200.18185969  .00002662  00000+0  18826-3 0  9992
2 65451  97.2864  51.7554 0002821  82.3219 277.8329 15.05660766 49434
STARLINK-35084          
1 65452U 25194U   26200.86028446  .00002307  00000+0  16368-3 0  9999
2 65452  97.2850  52.3644 0002526  82.4922 277.6593 15.05659014 49537
STARLINK-34988          
1 65453U 25194V   26200.49250389  .00002402  00000+0  17415-3 0  9992
2 65453  97.3951  53.6932 0001493  85.1455 274.9942 15.04840430 49528
STARLINK-35059          
1 65454U 25194W   26200.82853285  .00002617  00000+0  18937-3 0  9992
2 65454  97.3948  53.5378 0002231  72.9695 287.1776 15.04840106 49542
STARLINK-34728          
1 65455U 25194X   26200.53906513  .00002432  00000+0  17231-3 0  9995
2 65455  97.2854  52.0356 0002189  89.9927 270.1552 15.05662083 49480
STARLINK-35005          
1 65456U 25194Y   26200.55293372  .00002887  00000+0  20390-3 0  9994
2 65456  97.2841  52.1727 0002334  80.1240 280.0251 15.05656853 49498
STARLINK-35076          
1 65457U 25194Z   26200.86582265  .00001998  00000+0  14229-3 0  9997
2 65457  97.2849  52.3569 0002199  86.8898 273.2581 15.05660077 49532
STARLINK-34784          
1 65458U 25195A   26200.85660843  .00009881  00000+0  32961-3 0  9999
2 65458  53.1601   3.2481 0001060 106.3708 253.7410 15.31714536 50245
STARLINK-34867          
1 65459U 25195B   26200.71447291  .00019159  00000+0  57651-3 0  9997
2 65459  53.1600   3.0723 0001061  88.4540 271.6584 15.34410975 50230
STARLINK-34850          
1 65460U 25195C   26200.84053413  .00006853  00000+0  21379-3 0  9997
2 65460  53.1608   2.4365 0001171  84.3336 275.7800 15.34397393 50251
STARLINK-35159          
1 65461U 25195D   26200.86158561  .00020576  00000+0  61928-3 0  9992
2 65461  53.1607   2.5727 0000827  56.9418 303.1664 15.34356553 50254
STARLINK-35180          
1 65462U 25195E   26200.71657734  .00013790  00000+0  41858-3 0  9993
2 65462  53.1609   3.0862 0001488 109.7559 250.3604 15.34396427 50239
STARLINK-35111          
1 65463U 25195F   26200.74477810  .00006832  00000+0  23165-3 0  9992
2 65463  53.1611   3.9638 0001249  78.1958 281.9184 15.31709024 50220
STARLINK-35107          
1 65464U 25195G   26200.70743877  .00008341  00000+0  28014-3 0  9993
2 65464  53.1599   3.7352 0001525  88.4474 271.6702 15.31711640 50220
STARLINK-35169          
1 65465U 25195H   26200.74393002  .00011598  00000+0  35383-3 0  9994
2 65465  53.1600   3.2571 0000987  83.5613 276.5502 15.34402296 50234
STARLINK-35027          
1 65466U 25195J   26200.85947514  .00018328  00000+0  55219-3 0  9998
2 65466  53.1610   2.5585 0001144  74.3564 285.7565 15.34404234 50259
STARLINK-34816          
1 65467U 25195K   26200.83335647  .00031086  00000+0  10098-2 0  9996
2 65467  53.1615   4.6744 0001226  76.2963 204.1474 15.31686036  5703
STARLINK-35033          
1 65468U 25195L   26200.84260293  .00010292  00000+0  34279-3 0  9996
2 65468  53.1596   3.1521 0000860  72.2801 287.8294 15.31715093 50242
STARLINK-34924          
1 65469U 25195M   26200.71236917  .00012358  00000+0  37626-3 0  9993
2 65469  53.1595   3.0583 0001202  82.2239 277.8900 15.34402498 50233
STARLINK-34829          
1 65470U 25195N   26200.73077465  .00007743  00000+0  26091-3 0  9994
2 65470  53.1617   3.8767 0001149 103.8030 256.3099 15.31712602 50229
STARLINK-34888          
1 65471U 25195P   26200.74182561  .00014615  00000+0  44279-3 0  9994
2 65471  53.1616   3.2403 0001303  97.1742 262.9409 15.34403126 50237
STARLINK-34799          
1 65472U 25195Q   26200.76908928  .00011219  00000+0  34263-3 0  9999
2 65472  53.1598   2.7029 0001186  84.4505 275.6633 15.34403977 50223
STARLINK-34762          
1 65473U 25195R   26200.83001365  .00013446  00000+0  40827-3 0  9994
2 65473  53.1607   2.3707 0001069  89.0075 271.1050 15.34408436 50237
STARLINK-34998          
1 65474U 25195S   26200.81202451  .00008127  00000+0  28619-3 0  9997
2 65474  53.1605   4.3776 0001164 114.4976 245.6146 15.30202317 50208
STARLINK-34832          
1 65475U 25195T   26200.82580727  .00009604  00000+0  29497-3 0  9990
2 65475  53.1598   2.3431 0001000 105.2131 254.8982 15.34404268 50232
